ORBCOMM FM115 [+]       
1 41186U 15081H   23248.40307013  .00000781  00000+0  19740-3 0  9991
2 41186  46.9981 247.8159 0001621 298.3913  61.6810 14.59865440412601
ORBCOMM FM108 [+]       
1 41187U 15081J   23248.51204154  .00000691  00000+0  19381-3 0  9997
2 41187  47.0050 293.8700 0003194 232.1894 127.8701 14.55867829411999
ORBCOMM FM117 [+]       
1 41188U 15081K   23248.47712614  .00000724  00000+0  20132-3 0  9991
2 41188  47.0009 293.0043 0003993 236.5101 123.5402 14.55863830411957
ORBCOMM FM116 [+]       
1 41189U 15081L   23248.53580221  .00000841  00000+0  22762-3 0  9997
2 41189  47.0037  22.5323 0002355 294.4524  65.6115 14.55852495410779
